{"type": "FeatureCollection", "features": [ {"type": "Feature", "properties": {"norad_id": 33779, "name": "COSMOS 2251 DEB", "group": "cosmos-2251-debris", "lat": 14.983546594549754, "lon": -169.06301551321243, "alt_km": 672.1470628440693, "timestamp": "2025-12-04T13:52:00.834113+00:00", "meta": {"OBJECT_NAME": "COSMOS 2251 DEB", "OBJECT_ID": "1993-036U", "EPOCH": "2025-12-04T01:17:57.805728", "MEAN_MOTION": 14.70181178, "ECCENTRICITY": 0.00176806, "INCLINATION": 74.0442, "RA_OF_ASC_NODE": 187.56, "ARG_OF_PERICENTER": 222.6406, "MEAN_ANOMALY": 262.6385, "EPHEMERIS_TYPE": 0, "CLASSIFICATION_TYPE": "U", "NORAD_CAT_ID": 33779, "ELEMENT_SET_NO": 999, "REV_AT_EPOCH": 88400, "BSTAR": 0.0026535211, "MEAN_MOTION_DOT": 0.00016025, "MEAN_MOTION_DDOT": 0}, "tle": {"line1": "1 33779U 93036U   25338.05414127  .00016025  00000+0  26535-2 0  9991", "line2": "2 33779  74.0442 187.5600 0017680 222.6406 262.6385 14.70181178884003"}}, "geometry": {"type": "Point", "coordinates": [-169.06301551321243, 14.983546594549754]}}, {"type": "Feature", "properties": {"norad_id": 33782, "name": "COSMOS 2251 DEB", "group": "cosmos-2251-debris", "lat": -61.854428776020605, "lon": -99.71560325173961, "alt_km": 757.8563797396919, "timestamp": "2025-12-04T13:52:00.834124+00:00", "meta": {"OBJECT_NAME": "COSMOS 2251 DEB", "OBJECT_ID": "1993-036X", "EPOCH": "2025-12-04T06:24:10.267200", "MEAN_MOTION": 14.40410184, "ECCENTRICITY": 0.00203777, "INCLINATION": 74.0327, "RA_OF_ASC_NODE": 293.2163, "ARG_OF_PERICENTER": 359.4828, "MEAN_ANOMALY": 122.2189, "EPHEMERIS_TYPE": 0, "CLASSIFICATION_TYPE": "U", "NORAD_CAT_ID": 33782, "ELEMENT_SET_NO": 999, "REV_AT_EPOCH": 88004, "BSTAR": 0.00085183044, "MEAN_MOTION_DOT": 2.686e-05, "MEAN_MOTION_DDOT": 0}, "tle": {"line1": "1 33782U 93036X   25338.26678550  .00002686  00000+0  85183-3 0  9993", "line2": "2 33782  74.0327 293.2163 0020377 359.4828 122.2189 14.40410184880044"}}, "geometry": {"type": "Point", "coordinates": [-99.71560325173961, -61.854428776020605]}}, {"type": "Feature", "properties": {"norad_id": 33785, "name": "COSMOS 2251 DEB", "group": "cosmos-2251-debris", "lat": -11.839547477239869, "lon": 72.44625666438411, "alt_km": 651.3617773000751, "timestamp": "2025-12-04T13:52:00.834134+00:00", "meta": {"OBJECT_NAME": "COSMOS 2251 DEB", "OBJECT_ID": "1993-036AA", "EPOCH": "2025-12-04T07:39:50.746176", "MEAN_MOTION": 14.7017469, "ECCENTRICITY": 0.00214769, "INCLINATION": 73.8677, "RA_OF_ASC_NODE": 76.431, "ARG_OF_PERICENTER": 18.0454, "MEAN_ANOMALY": 42.5326, "EPHEMERIS_TYPE": 0, "CLASSIFICATION_TYPE": "U", "NORAD_CAT_ID": 33785, "ELEMENT_SET_NO": 999, "REV_AT_EPOCH": 88383, "BSTAR": 0.0053277795, "MEAN_MOTION_DOT": 0.00032318, "MEAN_MOTION_DDOT": 0}, "tle": {"line1": "1 33785U 93036AA  25338.31933734  .00032318  00000+0  53278-2 0  9994", "line2": "2 33785  73.8677  76.4310 0021476  18.0454  42.5326 14.70174690883830"}}, "geometry": {"type": "Point", "coordinates": [72.44625666438411, -11.839547477239869]}}, {"type": "Feature", "properties": {"norad_id": 33789, "name": "COSMOS 2251 DEB", "group": "cosmos-2251-debris", "lat": 38.32745937169307, "lon": 114.31197055226673, "alt_km": 1105.4809571653159, "timestamp": "2025-12-04T13:52:00.834145+00:00", "meta": {"OBJECT_NAME": "COSMOS 2251 DEB", "OBJECT_ID": "1993-036AE", "EPOCH": "2025-12-04T02:26:01.956192", "MEAN_MOTION": 13.88764069, "ECCENTRICITY": 0.02404684, "INCLINATION": 74.0636, "RA_OF_ASC_NODE": 102.066, "ARG_OF_PERICENTER": 219.5889, "MEAN_ANOMALY": 319.9835, "EPHEMERIS_TYPE": 0, "CLASSIFICATION_TYPE": "U", "NORAD_CAT_ID": 33789, "ELEMENT_SET_NO": 999, "REV_AT_EPOCH": 84975, "BSTAR": 0.0013316112, "MEAN_MOTION_DOT": 2e-05, "MEAN_MOTION_DDOT": 0}, "tle": {"line1": "1 33789U 93036AE  25338.10141153  .00002000  00000+0  13316-2 0  9995", "line2": "2 33789  74.0636 102.0660 0240468 219.5889 319.9835 13.88764069849752"}}, "geometry": {"type": "Point", "coordinates": [114.31197055226673, 38.32745937169307]}}, {"type": "Feature", "properties": {"norad_id": 33791, "name": "COSMOS 2251 DEB", "group": "cosmos-2251-debris", "lat": 56.744957168323744, "lon": -153.01330878054742, "alt_km": 757.0418028329586, "timestamp": "2025-12-04T13:52:00.834155+00:00", "meta": {"OBJECT_NAME": "COSMOS 2251 DEB", "OBJECT_ID": "1993-036AG", "EPOCH": "2025-12-04T06:57:19.870848", "MEAN_MOTION": 14.4305814, "ECCENTRICITY": 0.00306052, "INCLINATION": 74.1764, "RA_OF_ASC_NODE": 53.1417, "ARG_OF_PERICENTER": 251.7194, "MEAN_ANOMALY": 172.7057, "EPHEMERIS_TYPE": 0, "CLASSIFICATION_TYPE": "U", "NORAD_CAT_ID": 33791, "ELEMENT_SET_NO": 999, "REV_AT_EPOCH": 87930, "BSTAR": 0.0015837116, "MEAN_MOTION_DOT": 5.318e-05, "MEAN_MOTION_DDOT": 0}, "tle": {"line1": "1 33791U 93036AG  25338.28981332  .00005318  00000+0  15837-2 0  9993", "line2": "2 33791  74.1764  53.1417 0030605 251.7194 172.7057 14.43058140879304"}}, "geometry": {"type": "Point", "coordinates": [-153.01330878054742, 56.744957168323744]}}, {"type": "Feature", "properties": {"norad_id": 33792, "name": "COSMOS 2251 DEB", "group": "cosmos-2251-debris", "lat": 29.663347653242653, "lon": 168.91169327964047, "alt_km": 1040.9727237512143, "timestamp": "2025-12-04T13:52:00.834165+00:00", "meta": {"OBJECT_NAME": "COSMOS 2251 DEB", "OBJECT_ID": "1993-036AH", "EPOCH": "2025-12-04T06:26:37.527360", "MEAN_MOTION": 13.45805285, "ECCENTRICITY": 0.04268163, "INCLINATION": 73.9011, "RA_OF_ASC_NODE": 358.8722, "ARG_OF_PERICENTER": 65.1096, "MEAN_ANOMALY": 20.9769, "EPHEMERIS_TYPE": 0, "CLASSIFICATION_TYPE": "U", "NORAD_CAT_ID": 33792, "ELEMENT_SET_NO": 999, "REV_AT_EPOCH": 82328, "BSTAR": 0.0010960128, "MEAN_MOTION_DOT": 1.115e-05, "MEAN_MOTION_DDOT": 0}, "tle": {"line1": "1 33792U 93036AH  25338.26848990  .00001115  00000+0  10960-2 0  9997", "line2": "2 33792  73.9011 358.8722 0426816  65.1096  20.9769 13.45805285823283"}}, "geometry": {"type": "Point", "coordinates": [168.91169327964047, 29.663347653242653]}}, {"type": "Feature", "properties": {"norad_id": 33793, "name": "COSMOS 2251 DEB", "group": "cosmos-2251-debris", "lat": 72.94582528267097, "lon": -84.73416092999348, "alt_km": 834.6133521893371, "timestamp": "2025-12-04T13:52:00.834176+00:00", "meta": {"OBJECT_NAME": "COSMOS 2251 DEB", "OBJECT_ID": "1993-036AJ", "EPOCH": "2025-12-03T14:10:50.282400", "MEAN_MOTION": 14.27674189, "ECCENTRICITY": 0.00781799, "INCLINATION": 73.9798, "RA_OF_ASC_NODE": 166.5445, "ARG_OF_PERICENTER": 318.4384, "MEAN_ANOMALY": 106.4332, "EPHEMERIS_TYPE": 0, "CLASSIFICATION_TYPE": "U", "NORAD_CAT_ID": 33793, "ELEMENT_SET_NO": 999, "REV_AT_EPOCH": 87076, "BSTAR": 0.00085987956, "MEAN_MOTION_DOT": 2.164e-05, "MEAN_MOTION_DDOT": 0}, "tle": {"line1": "1 33793U 93036AJ  25337.59085975  .00002164  00000+0  85988-3 0  9997", "line2": "2 33793  73.9798 166.5445 0078179 318.4384 106.4332 14.27674189870760"}}, "geometry": {"type": "Point", "coordinates": [-84.73416092999348, 72.94582528267097]}}, {"type": "Feature", "properties": {"norad_id": 33795, "name": "COSMOS 2251 DEB", "group": "cosmos-2251-debris", "lat": -68.32146844944687, "lon": 47.38553668942397, "alt_km": 564.448791032717, "timestamp": "2025-12-04T13:52:00.834186+00:00", "meta": {"OBJECT_NAME": "COSMOS 2251 DEB", "OBJECT_ID": "1993-036AL", "EPOCH": "2025-12-04T02:13:27.907104", "MEAN_MOTION": 15.04958866, "ECCENTRICITY": 0.00330793, "INCLINATION": 74.032, "RA_OF_ASC_NODE": 94.4599, "ARG_OF_PERICENTER": 180.527, "MEAN_ANOMALY": 356.8558, "EPHEMERIS_TYPE": 0, "CLASSIFICATION_TYPE": "U", "NORAD_CAT_ID": 33795, "ELEMENT_SET_NO": 999, "REV_AT_EPOCH": 89891, "BSTAR": 0.0031877343, "MEAN_MOTION_DOT": 0.00046003, "MEAN_MOTION_DDOT": 0}, "tle": {"line1": "1 33795U 93036AL  25338.09268411  .00046003  00000+0  31877-2 0  9990", "line2": "2 33795  74.0320  94.4599 0033079 180.5270 356.8558 15.04958866898917"}}, "geometry": {"type": "Point", "coordinates": [47.38553668942397, -68.32146844944687]}}, {"type": "Feature", "properties": {"norad_id": 33797, "name": "COSMOS 2251 DEB", "group": "cosmos-2251-debris", "lat": 53.04672972865944, "lon": 72.81672454100837, "alt_km": 690.5463078624925, "timestamp": "2025-12-04T13:52:00.834197+00:00", "meta": {"OBJECT_NAME": "COSMOS 2251 DEB", "OBJECT_ID": "1993-036AN", "EPOCH": "2025-12-04T07:22:25.433184", "MEAN_MOTION": 14.57793374, "ECCENTRICITY": 0.00611498, "INCLINATION": 74.0489, "RA_OF_ASC_NODE": 50.9849, "ARG_OF_PERICENTER": 141.338, "MEAN_ANOMALY": 296.3649, "EPHEMERIS_TYPE": 0, "CLASSIFICATION_TYPE": "U", "NORAD_CAT_ID": 33797, "ELEMENT_SET_NO": 999, "REV_AT_EPOCH": 88862, "BSTAR": 0.0011801502, "MEAN_MOTION_DOT": 5.513e-05, "MEAN_MOTION_DDOT": 0}, "tle": {"line1": "1 33797U 93036AN  25338.30723881  .00005513  00000+0  11802-2 0  9990", "line2": "2 33797  74.0489  50.9849 0061149 141.3380 296.3649 14.57793374888620"}}, "geometry": {"type": "Point", "coordinates": [72.81672454100837, 53.04672972865944]}}, {"type": "Feature", "properties": {"norad_id": 33798, "name": "COSMOS 2251 DEB", "group": "cosmos-2251-debris", "lat": -33.496818673182005, "lon": 140.18182819051134, "alt_km": 707.2078931915075, "timestamp": "2025-12-04T13:52:00.834207+00:00", "meta": {"OBJECT_NAME": "COSMOS 2251 DEB", "OBJECT_ID": "1993-036AP", "EPOCH": "2025-12-03T18:09:17.460576", "MEAN_MOTION": 14.44596671, "ECCENTRICITY": 0.00924837, "INCLINATION": 74.0276, "RA_OF_ASC_NODE": 152.6376, "ARG_OF_PERICENTER": 275.9418, "MEAN_ANOMALY": 98.6399, "EPHEMERIS_TYPE": 0, "CLASSIFICATION_TYPE": "U", "NORAD_CAT_ID": 33798, "ELEMENT_SET_NO": 999, "REV_AT_EPOCH": 88464, "BSTAR": 0.00023290947, "MEAN_MOTION_DOT": 8.19e-06, "MEAN_MOTION_DDOT": 0}, "tle": {"line1": "1 33798U 93036AP  25337.75645209  .00000819  00000+0  23291-3 0  9996", "line2": "2 33798  74.0276 152.6376 0092483 275.9418  98.6399 14.44596671884641"}}, "geometry": {"type": "Point", "coordinates": [140.18182819051134, -33.496818673182005]}}]}